#cP2018  1  1  0  0  0.00000000      96 ORBIT IGS14 HLM  IGS
## 1982  86400.00000000   900.00000000 58119 0.0000000000000
/* FINAL ORBIT COMBINATION FROM WEIGHTED AVERAGE OF:        
/* cod emr esa gfz grg jpl mit ngs sio                      
*  2018  1  1  0  0  0.00000000
G01  -7746.389210 -13820.659479 -21494.943319    -20.753728
G02 -16146.095026  14527.214173  15627.540391    240.422316
G03 -12362.480870 -22753.026810  -6038.321404    -17.744063
G05  -4900.810713  16693.999959  19909.026570    -18.204317
G06 -24712.780585   7688.503452   6021.512570    414.280208
G07 -22163.680755  -6866.636968  13521.019272    258.005521
G08   4333.533776 -25046.338006  -7426.494909    -86.110705
G09 -12036.085259 -10539.771655  21163.356509    488.854175
G10  19069.680003   3749.341392 -18140.981202    138.926713
G11  -3534.268730 -16963.022391 -20714.963195   -732.604333
G12   9185.357848  23532.040166  -8696.332711    357.695350
G13 -12056.096069  23649.242912  -1219.772260    -95.111764
G14  17484.433477 -14927.327815 -12876.711732    -91.616241
G15   -999.757486  24916.629494  -8766.109619   -357.416583
G16   5256.644115 -16163.001999  20153.075239     34.718998
G17 -16954.250928   6398.056130 -18984.749562   -134.201832
G18  20772.761087  13717.705750  -8894.618323    633.574972
G19 -18042.461985  13563.899127 -14444.622602   -466.539698
G20  12034.093628  21965.767793   8752.968685    497.084044
G21  23222.273114   5073.344184  12693.957463   -446.652928
G22  -7161.012283 -22314.072663 -12240.050279   -241.493147
G23  -4762.877326 -20376.871632  16364.017964   -219.072217
G24   4650.223399  15020.452529 -21522.337630    -44.227537
G25  17827.033275  19590.602218   3092.181529   -514.965529
G26  13438.899779  -7595.926227  21623.966592   -304.208502
G27  12421.154886 -22889.477768   4466.444145    359.846171
G28 -18544.561327  -8914.617585 -16141.434218    675.857890
G29   7867.521185  15087.399631  20389.820773    517.472483
G30 -26181.663067  -1244.744301   4754.122711    116.307050
G31  24737.691381  -7541.964340   6996.502646    151.692076
G32  17216.802573  -7995.768161 -18526.452608   -531.904828
R10  23656.774616   8973.663601  -2923.917071     14.954392
R13 -13097.777323 -12627.729545  17865.306983     -6.051582
R15 -22639.087927  -1663.329534 -11518.867059     -4.650427
R19 -15992.568658  18522.468488   7199.349815    -39.541577
R20  -1558.846542  14174.969264  21173.050950   -321.697335
R01   2834.997030 -20068.396805 -15503.711640     20.073658
R06   7858.449432  23962.436647  -3954.276731    124.306095
R05  -1917.607882  21084.097924  14207.991426   -222.036470
R22  20072.670178 -12901.463992   8847.112021     -6.460712
R24    730.325957 -13881.976073 -21403.960917   -160.500331
R23  13733.175441 -18906.525914 -10231.434833    127.611955
R16  -6557.666004   9349.553360 -22817.126951     82.385515
R04  -9718.498635   6203.739549  22762.553030    244.249984
R08   9915.094333  -5488.886353 -22808.696408    -27.026631
R03 -12009.907347 -13060.129910  18339.253589    120.136637
R07  12011.016314  12801.859259 -18495.749632    -26.276889
R02  -7096.033491 -24277.963921   3133.481945    287.910791
R18 -20024.810428  11938.475883 -10402.551356    179.400487
R21  13375.344848   1231.705611  21696.155319    149.010582
R09  11851.614101  13092.941262 -18364.046879     48.103844
R17 -13246.813518  -1511.462976 -21724.675879     97.448086
R14 -23619.207680  -9090.856395   3236.193235     23.500428
R11  21088.968779   -436.664270  14331.938934    -18.276276